{
  "type": "FeatureCollection",
  "features": [
    {
      "type": "Feature",
      "properties": {
        "norad_id": 22675,
        "name": "COSMOS 2251",
        "group": "cosmos-2251-debris",
        "lat": -48.9082501422711,
        "lon": 160.43372120817185,
        "alt_km": 804.5091185278834,
        "timestamp": "2025-12-09T18:55:17.624002+00:00",
        "meta_object_name": "COSMOS 2251",
        "meta_object_id": "1993-036A",
        "meta_epoch": "2025-12-09T09:28:08.957568",
        "meta_mean_motion": 14.33203312,
        "meta_eccentricity": 0.00238723,
        "meta_inclination": 74.0393,
        "meta_ra_of_asc_node": 321.996,
        "meta_arg_of_pericenter": 45.29,
        "meta_mean_anomaly": 315.019,
        "meta_ephemeris_type": 0,
        "meta_classification_type": "U",
        "meta_norad_cat_id": 22675,
        "meta_element_set_no": 999,
        "meta_rev_at_epoch": 69725,
        "meta_bstar": 9.9688117e-05,
        "meta_mean_motion_dot": 2.49e-06,
        "meta_mean_motion_ddot": 0,
        "tle_line1": "1 22675U 93036A   25343.39454812  .00000249  00000+0  99688-4 0  9994",
        "tle_line2": "2 22675  74.0393 321.9960 0023872  45.2900 315.0190 14.33203312697252"
      },
      "geometry": {
        "type": "Point",
        "coordinates": [
          160.43372120817185,
          -48.9082501422711
        ]
      }
    },
    {
      "type": "Feature",
      "properties": {
        "norad_id": 33757,
        "name": "COSMOS 2251 DEB",
        "group": "cosmos-2251-debris",
        "lat": -72.65991558578199,
        "lon": -97.45675042051023,
        "alt_km": 785.6418356882814,
        "timestamp": "2025-12-09T18:55:17.624026+00:00",
        "meta_object_name": "COSMOS 2251 DEB",
        "meta_object_id": "1993-036E",
        "meta_epoch": "2025-12-09T09:46:17.048928",
        "meta_mean_motion": 14.32579717,
        "meta_eccentricity": 0.00151288,
        "meta_inclination": 74.0366,
        "meta_ra_of_asc_node": 329.694,
        "meta_arg_of_pericenter": 343.5753,
        "meta_mean_anomaly": 127.9739,
        "meta_ephemeris_type": 0,
        "meta_classification_type": "U",
        "meta_norad_cat_id": 33757,
        "meta_element_set_no": 999,
        "meta_rev_at_epoch": 87948,
        "meta_bstar": 8.175053e-05,
        "meta_mean_motion_dot": 1.96e-06,
        "meta_mean_motion_ddot": 0,
        "tle_line1": "1 33757U 93036E   25343.40714177  .00000196  00000+0  81751-4 0  9995",
        "tle_line2": "2 33757  74.0366 329.6940 0015128 343.5753 127.9739 14.32579717879483"
      },
      "geometry": {
        "type": "Point",
        "coordinates": [
          -97.45675042051023,
          -72.65991558578199
        ]
      }
    },
    {
      "type": "Feature",
      "properties": {
        "norad_id": 33758,
        "name": "COSMOS 2251 DEB",
        "group": "cosmos-2251-debris",
        "lat": 20.01188598167701,
        "lon": -133.42352897067548,
        "alt_km": 720.9525538193593,
        "timestamp": "2025-12-09T18:55:17.624040+00:00",
        "meta_object_name": "COSMOS 2251 DEB",
        "meta_object_id": "1993-036F",
        "meta_epoch": "2025-12-09T15:37:07.442112",
        "meta_mean_motion": 14.51565226,
        "meta_eccentricity": 0.00174716,
        "meta_inclination": 74.0276,
        "meta_ra_of_asc_node": 220.848,
        "meta_arg_of_pericenter": 287.8728,
        "meta_mean_anomaly": 94.0374,
        "meta_ephemeris_type": 0,
        "meta_classification_type": "U",
        "meta_norad_cat_id": 33758,
        "meta_element_set_no": 999,
        "meta_rev_at_epoch": 88260,
        "meta_bstar": 0.001240625,
        "meta_mean_motion_dot": 4.951e-05,
        "meta_mean_motion_ddot": 0,
        "tle_line1": "1 33758U 93036F   25343.65078058  .00004951  00000+0  12406-2 0  9996",
        "tle_line2": "2 33758  74.0276 220.8480 0017471 287.8728  94.0374 14.51565226882608"
      },
      "geometry": {
        "type": "Point",
        "coordinates": [
          -133.42352897067548,
          20.01188598167701
        ]
      }
    },
    {
      "type": "Feature",
      "properties": {
        "norad_id": 33760,
        "name": "COSMOS 2251 DEB",
        "group": "cosmos-2251-debris",
        "lat": 45.82470197317584,
        "lon": 89.7339951935791,
        "alt_km": 772.2786283759597,
        "timestamp": "2025-12-09T18:55:17.624052+00:00",
        "meta_object_name": "COSMOS 2251 DEB",
        "meta_object_id": "1993-036H",
        "meta_epoch": "2025-12-09T07:08:04.252416",
        "meta_mean_motion": 14.35669306,
        "meta_eccentricity": 0.0019724,
        "meta_inclination": 74.032,
        "meta_ra_of_asc_node": 287.7739,
        "meta_arg_of_pericenter": 27.076,
        "meta_mean_anomaly": 87.0617,
        "meta_ephemeris_type": 0,
        "meta_classification_type": "U",
        "meta_norad_cat_id": 33760,
        "meta_element_set_no": 999,
        "meta_rev_at_epoch": 88075,
        "meta_bstar": 0.00021572,
        "meta_mean_motion_dot": 5.98e-06,
        "meta_mean_motion_ddot": 0,
        "tle_line1": "1 33760U 93036H   25343.29727144  .00000598  00000+0  21572-3 0  9994",
        "tle_line2": "2 33760  74.0320 287.7739 0019724  27.0760  87.0617 14.35669306880755"
      },
      "geometry": {
        "type": "Point",
        "coordinates": [
          89.7339951935791,
          45.82470197317584
        ]
      }
    },
    {
      "type": "Feature",
      "properties": {
        "norad_id": 33761,
        "name": "COSMOS 2251 DEB",
        "group": "cosmos-2251-debris",
        "lat": -12.227457199589859,
        "lon": -105.91784322232338,
        "alt_km": 738.0398769950989,
        "timestamp": "2025-12-09T18:55:17.624063+00:00",
        "meta_object_name": "COSMOS 2251 DEB",
        "meta_object_id": "1993-036J",
        "meta_epoch": "2025-12-09T13:07:58.201824",
        "meta_mean_motion": 14.42530122,
        "meta_eccentricity": 0.00229723,
        "meta_inclination": 74.0368,
        "meta_ra_of_asc_node": 258.0858,
        "meta_arg_of_pericenter": 338.7902,
        "meta_mean_anomaly": 196.501,
        "meta_ephemeris_type": 0,
        "meta_classification_type": "U",
        "meta_norad_cat_id": 33761,
        "meta_element_set_no": 999,
        "meta_rev_at_epoch": 88188,
        "meta_bstar": 0.00082368919,
        "meta_mean_motion_dot": 2.715e-05,
        "meta_mean_motion_ddot": 0,
        "tle_line1": "1 33761U 93036J   25343.54720141  .00002715  00000+0  82369-3 0  9997",
        "tle_line2": "2 33761  74.0368 258.0858 0022972 338.7902 196.5010 14.42530122881889"
      },
      "geometry": {
        "type": "Point",
        "coordinates": [
          -105.91784322232338,
          -12.227457199589859
        ]
      }
    },
    {
      "type": "Feature",
      "properties": {
        "norad_id": 33762,
        "name": "COSMOS 2251 DEB",
        "group": "cosmos-2251-debris",
        "lat": 74.0070120080373,
        "lon": 48.69305074244505,
        "alt_km": 768.9958199577331,
        "timestamp": "2025-12-09T18:55:17.624075+00:00",
        "meta_object_name": "COSMOS 2251 DEB",
        "meta_object_id": "1993-036K",
        "meta_epoch": "2025-12-09T15:58:18.400800",
        "meta_mean_motion": 14.3366232,
        "meta_eccentricity": 0.00148769,
        "meta_inclination": 74.0415,
        "meta_ra_of_asc_node": 315.6473,
        "meta_arg_of_pericenter": 17.9825,
        "meta_mean_anomaly": 158.6588,
        "meta_ephemeris_type": 0,
        "meta_classification_type": "U",
        "meta_norad_cat_id": 33762,
        "meta_element_set_no": 999,
        "meta_rev_at_epoch": 88003,
        "meta_bstar": 9.5990078e-05,
        "meta_mean_motion_dot": 2.4e-06,
        "meta_mean_motion_ddot": 0,
        "tle_line1": "1 33762U 93036K   25343.66549075  .00000240  00000+0  95990-4 0  9992",
        "tle_line2": "2 33762  74.0415 315.6473 0014876  17.9825 158.6588 14.33662320880031"
      },
      "geometry": {
        "type": "Point",
        "coordinates": [
          48.69305074244505,
          74.0070120080373
        ]
      }
    },
    {
      "type": "Feature",
      "properties": {
        "norad_id": 33764,
        "name": "COSMOS 2251 DEB",
        "group": "cosmos-2251-debris",
        "lat": 11.20699192050015,
        "lon": 94.85505598166807,
        "alt_km": 757.0247060306319,
        "timestamp": "2025-12-09T18:55:17.624085+00:00",
        "meta_object_name": "COSMOS 2251 DEB",
        "meta_object_id": "1993-036M",
        "meta_epoch": "2025-12-09T13:56:20.268960",
        "meta_mean_motion": 14.39500412,
        "meta_eccentricity": 0.00240753,
        "meta_inclination": 74.0335,
        "meta_ra_of_asc_node": 278.4901,
        "meta_arg_of_pericenter": 244.7627,
        "meta_mean_anomaly": 288.2965,
        "meta_ephemeris_type": 0,
        "meta_classification_type": "U",
        "meta_norad_cat_id": 33764,
        "meta_element_set_no": 999,
        "meta_rev_at_epoch": 88111,
        "meta_bstar": 0.00062719375,
        "meta_mean_motion_dot": 1.936e-05,
        "meta_mean_motion_ddot": 0,
        "tle_line1": "1 33764U 93036M   25343.58079015  .00001936  00000+0  62719-3 0  9992",
        "tle_line2": "2 33764  74.0335 278.4901 0024075 244.7627 288.2965 14.39500412881116"
      },
      "geometry": {
        "type": "Point",
        "coordinates": [
          94.85505598166807,
          11.20699192050015
        ]
      }
    }
  ]
}